{
  "type": "FeatureCollection",
  "features": [
    {
      "type": "Feature",
      "id": "route-0",
      "properties": {
        "shapeId": "3-58-vpt-5.2.H",
        "routeId": "aus:vic:vic-03-58:",
        "routeShortName": "58",
        "directionId": "0",
        "source": "Transport Victoria GTFS Schedule",
        "datasetVersion": "2026-09-18",
        "kind": "route"
      },
      "geometry": {
        "type": "LineString",
        "coordinates": [
          [
            145.02984155,
            -37.84358338
          ],
          [
            145.02963781,
            -37.84356141
          ],
          [
            145.02936759,
            -37.84356067
          ],
          [
            145.02932824,
            -37.84355767
          ],
          [
            145.02866266,
            -37.84348443
          ],
          [
            145.02760378,
            -37.84335576
          ],
          [
            145.02625233,
            -37.84318225
          ],
          [
            145.02450636,
            -37.84296102
          ],
          [
            145.02306701,
            -37.84278158
          ],
          [
            145.02009478,
            -37.84241153
          ],
          [
            145.01758855,
            -37.84212018
          ],
          [
            145.01405571,
            -37.84171097
          ],
          [
            145.01089178,
            -37.84133556
          ],
          [
            145.00996805,
            -37.84122884
          ],
          [
            145.00846189,
            -37.84104792
          ],
          [
            145.00536424,
            -37.84068195
          ],
          [
            145.00469014,
            -37.84060231
          ],
          [
            145.00233814,
            -37.84031451
          ],
          [
            144.9986816,
            -37.83986805
          ],
          [
            144.99811475,
            -37.83980236
          ],
          [
            144.99714499,
            -37.83968052
          ],
          [
            144.9962143,
            -37.83957673
          ],
          [
            144.99576246,
            -37.83952307
          ],
          [
            144.99442661,
            -37.83935848
          ],
          [
            144.9932934,
            -37.83921372
          ],
          [
            144.99225182,
            -37.83908404
          ],
          [
            144.99164643,
            -37.83900702
          ],
          [
            144.98975046,
            -37.83875171
          ],
          [
            144.98952441,
            -37.83872379
          ],
          [
            144.98674803,
            -37.83835553
          ],
          [
            144.98652158,
            -37.8383257
          ],
          [
            144.98567624,
            -37.8382222
          ],
          [
            144.98544557,
            -37.83819726
          ],
          [
            144.98520455,
            -37.83818088
          ],
          [
            144.98496056,
            -37.83816057
          ],
          [
            144.9847149,
            -37.83813501
          ],
          [
            144.98458288,
            -37.8381177
          ],
          [
            144.98177713,
            -37.83774908
          ],
          [
            144.98068984,
            -37.83761409
          ],
          [
            144.98018861,
            -37.83755188
          ],
          [
            144.97799997,
            -37.837269
          ],
          [
            144.9778498,
            -37.83724633
          ],
          [
            144.97741869,
            -37.8371671
          ],
          [
            144.97731128,
            -37.83714318
          ],
          [
            144.97719655,
            -37.83711273
          ],
          [
            144.97703286,
            -37.83706107
          ],
          [
            144.97691408,
            -37.83701649
          ],
          [
            144.9767446,
            -37.83694392
          ],
          [
            144.97659469,
            -37.83686177
          ],
          [
            144.97570694,
            -37.83634086
          ],
          [
            144.97560825,
            -37.83628068
          ],
          [
            144.97554749,
            -37.83623394
          ],
          [
            144.97549679,
            -37.83618459
          ],
          [
            144.97546785,
            -37.83615039
          ],
          [
            144.97543915,
            -37.83610691
          ],
          [
            144.97508999,
            -37.83546611
          ],
          [
            144.97497103,
            -37.83525004
          ],
          [
            144.97490235,
            -37.83513116
          ],
          [
            144.9747169,
            -37.83484086
          ],
          [
            144.97461671,
            -37.83468999
          ],
          [
            144.97451368,
            -37.83455611
          ],
          [
            144.974378,
            -37.83440283
          ],
          [
            144.97423947,
            -37.83426644
          ],
          [
            144.97398126,
            -37.834044
          ],
          [
            144.97388567,
            -37.83397468
          ],
          [
            144.97379864,
            -37.83392451
          ],
          [
            144.97373024,
            -37.83389144
          ],
          [
            144.97365952,
            -37.83386372
          ],
          [
            144.97328437,
            -37.8337339
          ],
          [
            144.97320249,
            -37.8337032
          ],
          [
            144.9731287,
            -37.83366741
          ],
          [
            144.97261734,
            -37.83338708
          ],
          [
            144.97234996,
            -37.83323442
          ],
          [
            144.97216408,
            -37.8331301
          ],
          [
            144.97211278,
            -37.83309497
          ],
          [
            144.97206069,
            -37.83304677
          ],
          [
            144.97202181,
            -37.83300221
          ],
          [
            144.9719932,
            -37.83295549
          ],
          [
            144.97194361,
            -37.83284117
          ],
          [
            144.97182702,
            -37.83255556
          ],
          [
            144.97178088,
            -37.83247691
          ],
          [
            144.97171334,
            -37.83242041
          ],
          [
            144.97163514,
            -37.83238834
          ],
          [
            144.97159098,
            -37.83237469
          ],
          [
            144.97154105,
            -37.83237212
          ],
          [
            144.97145935,
            -37.832389
          ],
          [
            144.97138648,
            -37.83240712
          ],
          [
            144.97021787,
            -37.83273438
          ],
          [
            144.96954972,
            -37.8329268
          ],
          [
            144.96807686,
            -37.83336017
          ],
          [
            144.96795812,
            -37.83339327
          ],
          [
            144.96792174,
            -37.83339814
          ],
          [
            144.96788899,
            -37.83339901
          ],
          [
            144.96781601,
            -37.83339208
          ],
          [
            144.96775374,
            -37.8333755
          ],
          [
            144.967702,
            -37.83335226
          ],
          [
            144.96767011,
            -37.83333432
          ],
          [
            144.96763762,
            -37.83330924
          ],
          [
            144.96759788,
            -37.83327089
          ],
          [
            144.96739376,
            -37.83305352
          ],
          [
            144.96604219,
            -37.83170112
          ],
          [
            144.96540508,
            -37.83105307
          ],
          [
            144.96391565,
            -37.82954787
          ],
          [
            144.9638141,
            -37.82945194
          ],
          [
            144.96060317,
            -37.82619521
          ],
          [
            144.96018582,
            -37.82577209
          ],
          [
            144.96016191,
            -37.82574482
          ],
          [
            144.96013388,
            -37.82570658
          ],
          [
            144.96010965,
            -37.8256583
          ],
          [
            144.9600958,
            -37.82561661
          ],
          [
            144.96008637,
            -37.82556697
          ],
          [
            144.96008481,
            -37.82552892
          ],
          [
            144.96010156,
            -37.82538267
          ],
          [
            144.96020664,
            -37.82505313
          ],
          [
            144.96035529,
            -37.82460557
          ],
          [
            144.96052448,
            -37.82407672
          ],
          [
            144.960722,
            -37.82344689
          ],
          [
            144.96079157,
            -37.82318134
          ],
          [
            144.96082766,
            -37.82307536
          ],
          [
            144.96088533,
            -37.82288711
          ],
          [
            144.96117536,
            -37.8220371
          ],
          [
            144.96127637,
            -37.82172686
          ],
          [
            144.96135216,
            -37.82148693
          ],
          [
            144.96137261,
            -37.82138356
          ],
          [
            144.96138238,
            -37.82128848
          ],
          [
            144.96138139,
            -37.82108506
          ],
          [
            144.96136965,
            -37.82054154
          ],
          [
            144.96136497,
            -37.8200386
          ],
          [
            144.96136193,
            -37.81998818
          ],
          [
            144.96135866,
            -37.81994613
          ],
          [
            144.96135116,
            -37.81991292
          ],
          [
            144.9613379,
            -37.81987466
          ],
          [
            144.96132324,
            -37.81984188
          ],
          [
            144.96129692,
            -37.81979528
          ],
          [
            144.96113361,
            -37.81942577
          ],
          [
            144.96085855,
            -37.81882848
          ],
          [
            144.96077722,
            -37.81864233
          ],
          [
            144.96072635,
            -37.81853817
          ],
          [
            144.96069653,
            -37.81848674
          ],
          [
            144.96065489,
            -37.8184433
          ],
          [
            144.96063777,
            -37.81842976
          ],
          [
            144.96059431,
            -37.81840729
          ],
          [
            144.96053788,
            -37.81838991
          ],
          [
            144.96048665,
            -37.81838542
          ],
          [
            144.96041266,
            -37.81839099
          ],
          [
            144.96035602,
            -37.81840587
          ],
          [
            144.95989141,
            -37.81856598
          ],
          [
            144.95982345,
            -37.81858354
          ],
          [
            144.95976623,
            -37.81859057
          ],
          [
            144.95974066,
            -37.81859076
          ],
          [
            144.95968901,
            -37.81858518
          ],
          [
            144.95965285,
            -37.81857833
          ],
          [
            144.95963033,
            -37.81857091
          ],
          [
            144.95958654,
            -37.81855249
          ],
          [
            144.9595467,
            -37.81853053
          ],
          [
            144.95953199,
            -37.81852001
          ],
          [
            144.95949445,
            -37.81848502
          ],
          [
            144.95948102,
            -37.8184692
          ],
          [
            144.95946337,
            -37.81844204
          ],
          [
            144.95916313,
            -37.81780223
          ],
          [
            144.95877937,
            -37.81696604
          ],
          [
            144.95866315,
            -37.81670242
          ],
          [
            144.95824243,
            -37.81579773
          ],
          [
            144.95817636,
            -37.81564753
          ],
          [
            144.95814646,
            -37.81559916
          ],
          [
            144.95814028,
            -37.81556778
          ],
          [
            144.95794775,
            -37.81514675
          ],
          [
            144.95772668,
            -37.8146689
          ],
          [
            144.95736698,
            -37.81383439
          ],
          [
            144.95653062,
            -37.81202491
          ],
          [
            144.95637546,
            -37.81168266
          ],
          [
            144.95635485,
            -37.81163923
          ],
          [
            144.95629918,
            -37.81154084
          ],
          [
            144.95618656,
            -37.81129954
          ],
          [
            144.95549956,
            -37.80980094
          ],
          [
            144.9554809,
            -37.80974853
          ],
          [
            144.95544006,
            -37.80965626
          ],
          [
            144.95541608,
            -37.80959501
          ],
          [
            144.95538826,
            -37.80949576
          ],
          [
            144.95537714,
            -37.80944186
          ],
          [
            144.95536925,
            -37.80932024
          ],
          [
            144.95537075,
            -37.80925737
          ],
          [
            144.95538293,
            -37.80916196
          ],
          [
            144.95547851,
            -37.80860399
          ],
          [
            144.95572965,
            -37.80722
          ],
          [
            144.95586261,
            -37.80646812
          ],
          [
            144.95593919,
            -37.80598939
          ],
          [
            144.95596401,
            -37.80585546
          ],
          [
            144.95597742,
            -37.80581802
          ],
          [
            144.9560462,
            -37.80542846
          ],
          [
            144.95612505,
            -37.80493319
          ],
          [
            144.95630803,
            -37.80391966
          ],
          [
            144.95641002,
            -37.80333882
          ],
          [
            144.95656872,
            -37.8024313
          ],
          [
            144.95661782,
            -37.80216198
          ],
          [
            144.9567397,
            -37.80145676
          ],
          [
            144.95676876,
            -37.80130487
          ],
          [
            144.95677628,
            -37.80123003
          ],
          [
            144.956771,
            -37.80116181
          ],
          [
            144.95676212,
            -37.80112146
          ],
          [
            144.95675453,
            -37.80110024
          ],
          [
            144.95673414,
            -37.80105717
          ],
          [
            144.95670565,
            -37.80101531
          ],
          [
            144.95667356,
            -37.80097627
          ],
          [
            144.95663913,
            -37.80094378
          ],
          [
            144.95527377,
            -37.79985543
          ],
          [
            144.95250565,
            -37.79765172
          ],
          [
            144.94795049,
            -37.79402045
          ],
          [
            144.94755522,
            -37.79370716
          ],
          [
            144.94751459,
            -37.79366914
          ],
          [
            144.94749788,
            -37.7936492
          ],
          [
            144.94748676,
            -37.79363234
          ],
          [
            144.94746828,
            -37.79359462
          ],
          [
            144.94746338,
            -37.79357858
          ],
          [
            144.94745795,
            -37.79354523
          ],
          [
            144.9474593,
            -37.79350849
          ],
          [
            144.94746379,
            -37.79348604
          ],
          [
            144.94747157,
            -37.79346319
          ],
          [
            144.94748155,
            -37.79344318
          ],
          [
            144.9475093,
            -37.79340491
          ],
          [
            144.94756128,
            -37.7933568
          ],
          [
            144.94797161,
            -37.79303159
          ],
          [
            144.94820617,
            -37.7928367
          ],
          [
            144.94827465,
            -37.79277499
          ],
          [
            144.94832262,
            -37.79272806
          ],
          [
            144.94840258,
            -37.79264556
          ],
          [
            144.94843695,
            -37.79260587
          ],
          [
            144.94855765,
            -37.79245054
          ],
          [
            144.94920659,
            -37.79158617
          ],
          [
            144.9493326,
            -37.79139848
          ],
          [
            144.94942315,
            -37.79125326
          ],
          [
            144.94970321,
            -37.79075149
          ],
          [
            144.94974908,
            -37.79066109
          ],
          [
            144.94978087,
            -37.79058324
          ],
          [
            144.94980138,
            -37.79052322
          ],
          [
            144.94981735,
            -37.79045519
          ],
          [
            144.94983124,
            -37.79037171
          ],
          [
            144.94983661,
            -37.79030476
          ],
          [
            144.94983468,
            -37.79021434
          ],
          [
            144.94977183,
            -37.78978473
          ],
          [
            144.94976194,
            -37.78969462
          ],
          [
            144.94976145,
            -37.78957278
          ],
          [
            144.94976391,
            -37.78949622
          ],
          [
            144.9497752,
            -37.78941639
          ],
          [
            144.94981497,
            -37.78921828
          ],
          [
            144.94983992,
            -37.78906759
          ],
          [
            144.94985003,
            -37.78898909
          ],
          [
            144.94985514,
            -37.7889234
          ],
          [
            144.94985605,
            -37.78886997
          ],
          [
            144.94985312,
            -37.78880756
          ],
          [
            144.94984941,
            -37.7887527
          ],
          [
            144.94983989,
            -37.78867008
          ],
          [
            144.94981884,
            -37.78856058
          ],
          [
            144.94964244,
            -37.78788037
          ],
          [
            144.94875883,
            -37.78457226
          ],
          [
            144.94870908,
            -37.78437557
          ],
          [
            144.94868205,
            -37.78426903
          ],
          [
            144.94865614,
            -37.78415097
          ],
          [
            144.94863242,
            -37.78396158
          ],
          [
            144.94862841,
            -37.78386409
          ],
          [
            144.94863111,
            -37.78373798
          ],
          [
            144.94864319,
            -37.78361292
          ],
          [
            144.94866334,
            -37.7834963
          ],
          [
            144.94869015,
            -37.78338502
          ],
          [
            144.94872774,
            -37.78326951
          ],
          [
            144.94877185,
            -37.78315286
          ],
          [
            144.94882821,
            -37.78303633
          ],
          [
            144.94887793,
            -37.78295041
          ],
          [
            144.9489465,
            -37.78284427
          ],
          [
            144.94903539,
            -37.78272164
          ],
          [
            144.94927073,
            -37.78243943
          ],
          [
            144.94937828,
            -37.78231126
          ],
          [
            144.94945325,
            -37.78221596
          ],
          [
            144.94949481,
            -37.78215018
          ],
          [
            144.94952697,
            -37.78207504
          ],
          [
            144.9495404,
            -37.78200399
          ],
          [
            144.94954307,
            -37.78191176
          ],
          [
            144.94954177,
            -37.78180666
          ],
          [
            144.94952789,
            -37.78145856
          ],
          [
            144.94952445,
            -37.78131179
          ],
          [
            144.94953197,
            -37.78126154
          ],
          [
            144.94954514,
            -37.78122059
          ],
          [
            144.94956686,
            -37.78117834
          ],
          [
            144.94960259,
            -37.78113012
          ],
          [
            144.94964963,
            -37.78108804
          ],
          [
            144.94967981,
            -37.78106811
          ],
          [
            144.94973273,
            -37.78103911
          ],
          [
            144.94978853,
            -37.78101692
          ],
          [
            144.9498478,
            -37.7810002
          ],
          [
            144.94987988,
            -37.78099391
          ],
          [
            144.94996441,
            -37.78098367
          ],
          [
            144.95081659,
            -37.78090865
          ],
          [
            144.95088728,
            -37.78090204
          ],
          [
            144.95100855,
            -37.78088532
          ],
          [
            144.9510482,
            -37.78087618
          ],
          [
            144.95111334,
            -37.78085298
          ],
          [
            144.95118566,
            -37.78081207
          ],
          [
            144.95123605,
            -37.78077167
          ],
          [
            144.95126945,
            -37.78073413
          ],
          [
            144.95129564,
            -37.78069448
          ],
          [
            144.95131634,
            -37.78064366
          ],
          [
            144.95132601,
            -37.78059372
          ],
          [
            144.95133695,
            -37.78049343
          ],
          [
            144.95134741,
            -37.78035744
          ],
          [
            144.95135246,
            -37.78022776
          ],
          [
            144.95135234,
            -37.78011286
          ],
          [
            144.95134833,
            -37.7799868
          ],
          [
            144.95133149,
            -37.77981538
          ],
          [
            144.95131327,
            -37.77968159
          ],
          [
            144.95128771,
            -37.77954228
          ],
          [
            144.95125495,
            -37.77940049
          ],
          [
            144.95118765,
            -37.77916502
          ],
          [
            144.95115223,
            -37.77905797
          ],
          [
            144.95109982,
            -37.77892071
          ],
          [
            144.95104097,
            -37.77879037
          ],
          [
            144.95098834,
            -37.77868564
          ],
          [
            144.95093371,
            -37.77858348
          ],
          [
            144.95086537,
            -37.7784637
          ],
          [
            144.95078865,
            -37.77833917
          ],
          [
            144.95071131,
            -37.77822491
          ],
          [
            144.95063346,
            -37.77812073
          ],
          [
            144.95055164,
            -37.77801639
          ],
          [
            144.94968869,
            -37.77704477
          ],
          [
            144.94954937,
            -37.77688482
          ],
          [
            144.94940684,
            -37.77672581
          ],
          [
            144.94932032,
            -37.77663571
          ],
          [
            144.9489329,
            -37.77620163
          ],
          [
            144.9488832,
            -37.77613056
          ],
          [
            144.94883896,
            -37.77604688
          ],
          [
            144.94880685,
            -37.77596423
          ],
          [
            144.94878801,
            -37.77589
          ],
          [
            144.94877858,
            -37.77582432
          ],
          [
            144.94877727,
            -37.77577338
          ],
          [
            144.94878372,
            -37.77567959
          ],
          [
            144.94879341,
            -37.77560848
          ],
          [
            144.94892257,
            -37.77493619
          ],
          [
            144.94930096,
            -37.77290738
          ],
          [
            144.94939024,
            -37.77245771
          ],
          [
            144.94948526,
            -37.7720058
          ],
          [
            144.94955075,
            -37.7716654
          ],
          [
            144.94956,
            -37.77160193
          ],
          [
            144.9498036,
            -37.77034957
          ],
          [
            144.94980495,
            -37.77029246
          ],
          [
            144.94980525,
            -37.77028156
          ],
          [
            144.94979611,
            -37.7702385
          ],
          [
            144.94977425,
            -37.77020379
          ],
          [
            144.94974315,
            -37.77017468
          ],
          [
            144.94969821,
            -37.77015362
          ],
          [
            144.94963623,
            -37.77014119
          ],
          [
            144.94771019,
            -37.76990921
          ],
          [
            144.94730284,
            -37.76986453
          ],
          [
            144.94553159,
            -37.76964738
          ],
          [
            144.94444089,
            -37.76951831
          ],
          [
            144.94396681,
            -37.76946084
          ],
          [
            144.94382945,
            -37.76944014
          ],
          [
            144.94372901,
            -37.76941856
          ],
          [
            144.94367201,
            -37.76940261
          ],
          [
            144.94353495,
            -37.76935038
          ],
          [
            144.94344672,
            -37.76930198
          ],
          [
            144.94336315,
            -37.76924951
          ],
          [
            144.94329767,
            -37.76919538
          ],
          [
            144.94317625,
            -37.76906638
          ],
          [
            144.94312487,
            -37.76899897
          ],
          [
            144.94307754,
            -37.76892091
          ],
          [
            144.94305078,
            -37.76884186
          ],
          [
            144.94303094,
            -37.76876302
          ],
          [
            144.94301642,
            -37.76866842
          ],
          [
            144.94301814,
            -37.76857373
          ],
          [
            144.94316912,
            -37.76761508
          ],
          [
            144.94339163,
            -37.76620952
          ],
          [
            144.94340576,
            -37.76613804
          ],
          [
            144.94342887,
            -37.76607022
          ],
          [
            144.94352381,
            -37.76588038
          ],
          [
            144.94355438,
            -37.76580936
          ],
          [
            144.94357949,
            -37.76572662
          ],
          [
            144.94373378,
            -37.76491446
          ],
          [
            144.94390476,
            -37.76400789
          ],
          [
            144.94422879,
            -37.76216937
          ],
          [
            144.94483472,
            -37.75874131
          ],
          [
            144.94502425,
            -37.75777458
          ],
          [
            144.94516839,
            -37.75705327
          ],
          [
            144.94541018,
            -37.75583801
          ],
          [
            144.94553339,
            -37.75526574
          ],
          [
            144.94560964,
            -37.75483577
          ],
          [
            144.94575152,
            -37.7541218
          ],
          [
            144.94581629,
            -37.75378264
          ],
          [
            144.94581925,
            -37.75370024
          ],
          [
            144.94579789,
            -37.75361497
          ],
          [
            144.94576596,
            -37.75353809
          ],
          [
            144.94574493,
            -37.75345733
          ],
          [
            144.94574059,
            -37.75341716
          ],
          [
            144.9457351,
            -37.75336524
          ],
          [
            144.94573644,
            -37.75326749
          ],
          [
            144.94575126,
            -37.75318313
          ],
          [
            144.94638341,
            -37.74978597
          ],
          [
            144.94644029,
            -37.74947353
          ],
          [
            144.94644151,
            -37.74939244
          ],
          [
            144.94643235,
            -37.74932532
          ],
          [
            144.94640792,
            -37.74925271
          ],
          [
            144.94637136,
            -37.74918332
          ],
          [
            144.94632817,
            -37.74912408
          ],
          [
            144.94592974,
            -37.74868303
          ],
          [
            144.94464235,
            -37.74726888
          ],
          [
            144.94453551,
            -37.74715149
          ],
          [
            144.9444738,
            -37.7470767
          ],
          [
            144.94442478,
            -37.74699861
          ],
          [
            144.94439788,
            -37.74691658
          ],
          [
            144.94438329,
            -37.74682441
          ],
          [
            144.94439073,
            -37.74673208
          ],
          [
            144.94440457,
            -37.74665013
          ],
          [
            144.94484331,
            -37.74412771
          ],
          [
            144.94521846,
            -37.7419707
          ],
          [
            144.94544298,
            -37.74068024
          ],
          [
            144.94549348,
            -37.74047106
          ],
          [
            144.94554026,
            -37.74020738
          ]
        ]
      }
    },
    {
      "type": "Feature",
      "id": "local_segment-0",
      "properties": {
        "shapeId": "3-58-vpt-5.2.H",
        "routeId": "aus:vic:vic-03-58:",
        "routeShortName": "58",
        "directionId": "0",
        "source": "Transport Victoria GTFS Schedule",
        "datasetVersion": "2026-09-18",
        "kind": "local_segment"
      },
      "geometry": {
        "type": "LineString",
        "coordinates": [
          [
            144.96540508,
            -37.83105307
          ],
          [
            144.96391565,
            -37.82954787
          ],
          [
            144.9638141,
            -37.82945194
          ],
          [
            144.96060317,
            -37.82619521
          ],
          [
            144.96018582,
            -37.82577209
          ],
          [
            144.96016191,
            -37.82574482
          ],
          [
            144.96013388,
            -37.82570658
          ],
          [
            144.96010965,
            -37.8256583
          ],
          [
            144.9600958,
            -37.82561661
          ],
          [
            144.96008637,
            -37.82556697
          ],
          [
            144.96008481,
            -37.82552892
          ],
          [
            144.96010156,
            -37.82538267
          ],
          [
            144.96020664,
            -37.82505313
          ],
          [
            144.96035529,
            -37.82460557
          ],
          [
            144.96052448,
            -37.82407672
          ],
          [
            144.960722,
            -37.82344689
          ],
          [
            144.96079157,
            -37.82318134
          ],
          [
            144.96082766,
            -37.82307536
          ],
          [
            144.96088533,
            -37.82288711
          ],
          [
            144.96117536,
            -37.8220371
          ],
          [
            144.96127637,
            -37.82172686
          ],
          [
            144.96135216,
            -37.82148693
          ],
          [
            144.96137261,
            -37.82138356
          ],
          [
            144.96138238,
            -37.82128848
          ],
          [
            144.96138139,
            -37.82108506
          ],
          [
            144.96136965,
            -37.82054154
          ]
        ]
      }
    },
    {
      "type": "Feature",
      "id": "route-1",
      "properties": {
        "shapeId": "3-58-vpt-5.3.R",
        "routeId": "aus:vic:vic-03-58:",
        "routeShortName": "58",
        "directionId": "1",
        "source": "Transport Victoria GTFS Schedule",
        "datasetVersion": "2026-09-18",
        "kind": "route"
      },
      "geometry": {
        "type": "LineString",
        "coordinates": [
          [
            144.94554026,
            -37.74020738
          ],
          [
            144.94549348,
            -37.74047106
          ],
          [
            144.94548301,
            -37.74068148
          ],
          [
            144.94532475,
            -37.74159072
          ],
          [
            144.94529869,
            -37.74172472
          ],
          [
            144.944919,
            -37.74392275
          ],
          [
            144.94448837,
            -37.74639854
          ],
          [
            144.94443025,
            -37.7467352
          ],
          [
            144.94442327,
            -37.74682339
          ],
          [
            144.94443708,
            -37.74691069
          ],
          [
            144.94446231,
            -37.74698764
          ],
          [
            144.9445084,
            -37.74706099
          ],
          [
            144.94456835,
            -37.74713368
          ],
          [
            144.94618655,
            -37.7489138
          ],
          [
            144.94636167,
            -37.749107
          ],
          [
            144.94640704,
            -37.74916943
          ],
          [
            144.94644565,
            -37.74924247
          ],
          [
            144.94647156,
            -37.74931961
          ],
          [
            144.94648135,
            -37.74939224
          ],
          [
            144.94648005,
            -37.74947611
          ],
          [
            144.94579771,
            -37.75314951
          ],
          [
            144.94577549,
            -37.7532715
          ],
          [
            144.94577492,
            -37.75335774
          ],
          [
            144.94578432,
            -37.75345279
          ],
          [
            144.94580455,
            -37.75353002
          ],
          [
            144.94583647,
            -37.753607
          ],
          [
            144.94585905,
            -37.75369751
          ],
          [
            144.94585605,
            -37.75378532
          ],
          [
            144.94580815,
            -37.75403979
          ],
          [
            144.94529595,
            -37.75661508
          ],
          [
            144.9449099,
            -37.75855562
          ],
          [
            144.94488777,
            -37.75866599
          ],
          [
            144.94429212,
            -37.76203872
          ],
          [
            144.94394426,
            -37.76401236
          ],
          [
            144.94381402,
            -37.76470616
          ],
          [
            144.94361602,
            -37.76573564
          ],
          [
            144.94359264,
            -37.76581741
          ],
          [
            144.94351798,
            -37.76596381
          ],
          [
            144.94346709,
            -37.7660753
          ],
          [
            144.94344729,
            -37.76612632
          ],
          [
            144.94343281,
            -37.76617771
          ],
          [
            144.94342185,
            -37.7662333
          ],
          [
            144.94325807,
            -37.76730564
          ],
          [
            144.94308621,
            -37.76837874
          ],
          [
            144.94305758,
            -37.76857586
          ],
          [
            144.94305586,
            -37.76866676
          ],
          [
            144.9430699,
            -37.76875812
          ],
          [
            144.94308935,
            -37.76883479
          ],
          [
            144.94311462,
            -37.76891003
          ],
          [
            144.94315968,
            -37.76898417
          ],
          [
            144.94320897,
            -37.7690491
          ],
          [
            144.94332786,
            -37.76917518
          ],
          [
            144.94338978,
            -37.76922637
          ],
          [
            144.94347024,
            -37.76927689
          ],
          [
            144.943555,
            -37.76932352
          ],
          [
            144.94373904,
            -37.76939243
          ],
          [
            144.9438423,
            -37.76941477
          ],
          [
            144.94391811,
            -37.76942781
          ],
          [
            144.94404765,
            -37.76944422
          ],
          [
            144.94534098,
            -37.76959431
          ],
          [
            144.9485866,
            -37.76998756
          ],
          [
            144.94953072,
            -37.77009745
          ],
          [
            144.94964388,
            -37.77011059
          ],
          [
            144.94971343,
            -37.77012442
          ],
          [
            144.94976902,
            -37.77015062
          ],
          [
            144.94980742,
            -37.77018661
          ],
          [
            144.94983526,
            -37.77023504
          ],
          [
            144.94984482,
            -37.77027927
          ],
          [
            144.94984303,
            -37.77035233
          ],
          [
            144.9497293,
            -37.77091872
          ],
          [
            144.94958978,
            -37.7716704
          ],
          [
            144.94947016,
            -37.77225246
          ],
          [
            144.94933555,
            -37.7729251
          ],
          [
            144.94902314,
            -37.77462073
          ],
          [
            144.94884677,
            -37.77553046
          ],
          [
            144.94883091,
            -37.7756112
          ],
          [
            144.94881993,
            -37.77568401
          ],
          [
            144.9488148,
            -37.77576277
          ],
          [
            144.94881892,
            -37.77582322
          ],
          [
            144.94882823,
            -37.77589323
          ],
          [
            144.9488484,
            -37.77596838
          ],
          [
            144.94888064,
            -37.77604256
          ],
          [
            144.94892746,
            -37.77612322
          ],
          [
            144.94897981,
            -37.77620064
          ],
          [
            144.94931444,
            -37.77658163
          ],
          [
            144.94937753,
            -37.77664428
          ],
          [
            144.9495321,
            -37.77681513
          ],
          [
            144.9497663,
            -37.77708325
          ],
          [
            144.95023567,
            -37.77760933
          ],
          [
            144.95039404,
            -37.77779061
          ],
          [
            144.95048923,
            -37.77789176
          ],
          [
            144.95057299,
            -37.77798766
          ],
          [
            144.95065137,
            -37.77808473
          ],
          [
            144.95072991,
            -37.77819279
          ],
          [
            144.95079763,
            -37.77828977
          ],
          [
            144.95086397,
            -37.77839113
          ],
          [
            144.95092974,
            -37.77850132
          ],
          [
            144.95102965,
            -37.77868627
          ],
          [
            144.9510873,
            -37.77880658
          ],
          [
            144.95116435,
            -37.77898086
          ],
          [
            144.95123351,
            -37.77918177
          ],
          [
            144.95131064,
            -37.77946427
          ],
          [
            144.95134013,
            -37.77960952
          ],
          [
            144.95135621,
            -37.77970974
          ],
          [
            144.95136962,
            -37.77981622
          ],
          [
            144.95137974,
            -37.77991426
          ],
          [
            144.95139373,
            -37.78014368
          ],
          [
            144.95138435,
            -37.78037223
          ],
          [
            144.95137357,
            -37.78051209
          ],
          [
            144.95135824,
            -37.78063934
          ],
          [
            144.9513502,
            -37.78067164
          ],
          [
            144.95133545,
            -37.78070824
          ],
          [
            144.95131605,
            -37.78074467
          ],
          [
            144.95128778,
            -37.78078176
          ],
          [
            144.95125759,
            -37.78080989
          ],
          [
            144.95122307,
            -37.78083876
          ],
          [
            144.95119934,
            -37.78085511
          ],
          [
            144.95115137,
            -37.78088176
          ],
          [
            144.9511235,
            -37.78089209
          ],
          [
            144.95108856,
            -37.7809032
          ],
          [
            144.95102973,
            -37.78091623
          ],
          [
            144.95097,
            -37.78092439
          ],
          [
            144.95061747,
            -37.78095655
          ],
          [
            144.94996406,
            -37.78101701
          ],
          [
            144.94987353,
            -37.78103057
          ],
          [
            144.94979935,
            -37.78105262
          ],
          [
            144.94975338,
            -37.78107237
          ],
          [
            144.94970775,
            -37.78110086
          ],
          [
            144.94965272,
            -37.78114857
          ],
          [
            144.94961818,
            -37.78119068
          ],
          [
            144.94959116,
            -37.78123572
          ],
          [
            144.94957491,
            -37.78128149
          ],
          [
            144.94956736,
            -37.78132849
          ],
          [
            144.94956535,
            -37.78138478
          ],
          [
            144.94958195,
            -37.78195524
          ],
          [
            144.94957928,
            -37.78200242
          ],
          [
            144.94956924,
            -37.78205748
          ],
          [
            144.94955447,
            -37.78211148
          ],
          [
            144.94953298,
            -37.7821576
          ],
          [
            144.9495042,
            -37.78220477
          ],
          [
            144.94946185,
            -37.78226198
          ],
          [
            144.94921695,
            -37.78256142
          ],
          [
            144.94905032,
            -37.78276461
          ],
          [
            144.9489772,
            -37.78286716
          ],
          [
            144.94887281,
            -37.78303296
          ],
          [
            144.94880556,
            -37.7831739
          ],
          [
            144.94875249,
            -37.78331482
          ],
          [
            144.94871454,
            -37.7834433
          ],
          [
            144.94869327,
            -37.78354702
          ],
          [
            144.94867434,
            -37.78368979
          ],
          [
            144.94866727,
            -37.78380187
          ],
          [
            144.94867065,
            -37.78394224
          ],
          [
            144.94868085,
            -37.78406624
          ],
          [
            144.94869306,
            -37.78414621
          ],
          [
            144.94878427,
            -37.78451854
          ],
          [
            144.94965976,
            -37.78779208
          ],
          [
            144.94971388,
            -37.78800723
          ],
          [
            144.94977965,
            -37.78824881
          ],
          [
            144.94986192,
            -37.78857972
          ],
          [
            144.9498718,
            -37.78862891
          ],
          [
            144.94988956,
            -37.78877089
          ],
          [
            144.9498942,
            -37.78887857
          ],
          [
            144.9498896,
            -37.78897104
          ],
          [
            144.94988175,
            -37.78903714
          ],
          [
            144.94985538,
            -37.7892025
          ],
          [
            144.94983364,
            -37.78930269
          ],
          [
            144.94981539,
            -37.78940429
          ],
          [
            144.94980521,
            -37.78948919
          ],
          [
            144.94979995,
            -37.78956849
          ],
          [
            144.94980009,
            -37.78967862
          ],
          [
            144.94980558,
            -37.78975946
          ],
          [
            144.94981219,
            -37.7898159
          ],
          [
            144.9498658,
            -37.79015234
          ],
          [
            144.94987413,
            -37.7902289
          ],
          [
            144.94987517,
            -37.790323
          ],
          [
            144.9498691,
            -37.79037408
          ],
          [
            144.9498534,
            -37.79046943
          ],
          [
            144.9498378,
            -37.7905326
          ],
          [
            144.94981017,
            -37.79060782
          ],
          [
            144.94977315,
            -37.79069413
          ],
          [
            144.94972597,
            -37.79078649
          ],
          [
            144.94950911,
            -37.79117536
          ],
          [
            144.94938842,
            -37.79137981
          ],
          [
            144.94924626,
            -37.79158893
          ],
          [
            144.94916923,
            -37.7916969
          ],
          [
            144.94903734,
            -37.7918752
          ],
          [
            144.94864537,
            -37.79239511
          ],
          [
            144.9485214,
            -37.79255372
          ],
          [
            144.94844636,
            -37.79264731
          ],
          [
            144.94840458,
            -37.79269218
          ],
          [
            144.94836317,
            -37.7927358
          ],
          [
            144.94825054,
            -37.79284171
          ],
          [
            144.94810989,
            -37.79296317
          ],
          [
            144.94759473,
            -37.79337513
          ],
          [
            144.94756456,
            -37.7934066
          ],
          [
            144.94754156,
            -37.79343729
          ],
          [
            144.94752989,
            -37.79346105
          ],
          [
            144.94751905,
            -37.79349178
          ],
          [
            144.94751385,
            -37.79352764
          ],
          [
            144.94751416,
            -37.79354108
          ],
          [
            144.94752204,
            -37.79358861
          ],
          [
            144.94754017,
            -37.79363111
          ],
          [
            144.94755919,
            -37.79365784
          ],
          [
            144.9475797,
            -37.7936801
          ],
          [
            144.94761417,
            -37.79371071
          ],
          [
            144.94826786,
            -37.79423117
          ],
          [
            144.95230756,
            -37.79745128
          ],
          [
            144.95416216,
            -37.79892827
          ],
          [
            144.95502449,
            -37.7996122
          ],
          [
            144.95551109,
            -37.80000157
          ],
          [
            144.95655878,
            -37.80083028
          ],
          [
            144.95671989,
            -37.80096816
          ],
          [
            144.95674932,
            -37.80100084
          ],
          [
            144.95676298,
            -37.80102018
          ],
          [
            144.95679722,
            -37.80107989
          ],
          [
            144.95681325,
            -37.80112469
          ],
          [
            144.9568208,
            -37.80116808
          ],
          [
            144.95682125,
            -37.80121377
          ],
          [
            144.95681475,
            -37.80127647
          ],
          [
            144.95672925,
            -37.80177019
          ],
          [
            144.9564222,
            -37.80351512
          ],
          [
            144.9560471,
            -37.80562674
          ],
          [
            144.95573359,
            -37.80740265
          ],
          [
            144.95557032,
            -37.80834767
          ],
          [
            144.95552393,
            -37.80860037
          ],
          [
            144.95542395,
            -37.80918602
          ],
          [
            144.95541524,
            -37.80927112
          ],
          [
            144.95541486,
            -37.80934266
          ],
          [
            144.95542065,
            -37.80943757
          ],
          [
            144.9554299,
            -37.80948919
          ],
          [
            144.95544,
            -37.80953496
          ],
          [
            144.95546265,
            -37.80961132
          ],
          [
            144.95553774,
            -37.80978827
          ],
          [
            144.95575174,
            -37.81026158
          ],
          [
            144.9559364,
            -37.81066248
          ],
          [
            144.95631805,
            -37.81147007
          ],
          [
            144.95638896,
            -37.8116299
          ],
          [
            144.95677159,
            -37.81246013
          ],
          [
            144.95740211,
            -37.81382517
          ],
          [
            144.95779783,
            -37.81473366
          ],
          [
            144.95806761,
            -37.81532744
          ],
          [
            144.95819095,
            -37.81558804
          ],
          [
            144.95822255,
            -37.81566581
          ],
          [
            144.95825817,
            -37.81573754
          ],
          [
            144.95896239,
            -37.81727489
          ],
          [
            144.95906121,
            -37.81748964
          ],
          [
            144.95911583,
            -37.81761423
          ],
          [
            144.95915112,
            -37.81768568
          ],
          [
            144.95948634,
            -37.81840404
          ],
          [
            144.95950828,
            -37.81843633
          ],
          [
            144.95951942,
            -37.8184485
          ],
          [
            144.9595658,
            -37.81848878
          ],
          [
            144.95960888,
            -37.81851656
          ],
          [
            144.95964959,
            -37.81853583
          ],
          [
            144.95969593,
            -37.81854871
          ],
          [
            144.95972889,
            -37.81855198
          ],
          [
            144.9597598,
            -37.8185518
          ],
          [
            144.95980136,
            -37.81854837
          ],
          [
            144.95984427,
            -37.81854101
          ],
          [
            144.95988135,
            -37.81853129
          ],
          [
            144.96041248,
            -37.81835232
          ],
          [
            144.96045289,
            -37.81834086
          ],
          [
            144.96048596,
            -37.81833647
          ],
          [
            144.96053666,
            -37.81833942
          ],
          [
            144.96059312,
            -37.81835167
          ],
          [
            144.96061787,
            -37.81836039
          ],
          [
            144.96063881,
            -37.81837147
          ],
          [
            144.9606678,
            -37.81839117
          ],
          [
            144.96069665,
            -37.81841636
          ],
          [
            144.96070947,
            -37.8184292
          ],
          [
            144.96073482,
            -37.81846578
          ],
          [
            144.96094071,
            -37.81890587
          ],
          [
            144.96105422,
            -37.81916098
          ],
          [
            144.96108512,
            -37.81923541
          ],
          [
            144.96115157,
            -37.81937606
          ],
          [
            144.96121226,
            -37.81951535
          ],
          [
            144.96130627,
            -37.81973209
          ],
          [
            144.96133095,
            -37.81978479
          ],
          [
            144.96136585,
            -37.81984577
          ],
          [
            144.9613789,
            -37.81987492
          ],
          [
            144.96139181,
            -37.81990966
          ],
          [
            144.96139807,
            -37.81994212
          ],
          [
            144.96140225,
            -37.82002988
          ],
          [
            144.96142184,
            -37.82128718
          ],
          [
            144.96141886,
            -37.82135012
          ],
          [
            144.96141032,
            -37.82141269
          ],
          [
            144.96140205,
            -37.82145716
          ],
          [
            144.961382,
            -37.82153773
          ],
          [
            144.96120625,
            -37.82207035
          ],
          [
            144.96102645,
            -37.82258901
          ],
          [
            144.96088569,
            -37.82303491
          ],
          [
            144.96086561,
            -37.82307917
          ],
          [
            144.96083962,
            -37.82318569
          ],
          [
            144.96079749,
            -37.82332924
          ],
          [
            144.96056375,
            -37.824082
          ],
          [
            144.96014943,
            -37.82536052
          ],
          [
            144.96013809,
            -37.82540124
          ],
          [
            144.96012454,
            -37.82548896
          ],
          [
            144.96012486,
            -37.82556394
          ],
          [
            144.96013131,
            -37.82560596
          ],
          [
            144.96014316,
            -37.82564591
          ],
          [
            144.96016722,
            -37.82569237
          ],
          [
            144.96019055,
            -37.82572387
          ],
          [
            144.96027785,
            -37.8258173
          ],
          [
            144.96077164,
            -37.82631528
          ],
          [
            144.96419654,
            -37.82978243
          ],
          [
            144.96503135,
            -37.83062414
          ],
          [
            144.96607247,
            -37.83168254
          ],
          [
            144.96742172,
            -37.8330367
          ],
          [
            144.96762543,
            -37.83325262
          ],
          [
            144.96766309,
            -37.83328778
          ],
          [
            144.96768525,
            -37.83330421
          ],
          [
            144.9677175,
            -37.83332153
          ],
          [
            144.96778404,
            -37.83334818
          ],
          [
            144.96781707,
            -37.83335767
          ],
          [
            144.96786334,
            -37.83336487
          ],
          [
            144.96791776,
            -37.83336509
          ],
          [
            144.96800114,
            -37.83334949
          ],
          [
            144.96979471,
            -37.83282675
          ],
          [
            144.97020354,
            -37.83270602
          ],
          [
            144.9713871,
            -37.83237181
          ],
          [
            144.97160758,
            -37.83232018
          ],
          [
            144.97170254,
            -37.8323047
          ],
          [
            144.97177134,
            -37.83229822
          ],
          [
            144.9718207,
            -37.83230078
          ],
          [
            144.97186638,
            -37.83232554
          ],
          [
            144.97196353,
            -37.83241679
          ],
          [
            144.97220075,
            -37.83273296
          ],
          [
            144.97226615,
            -37.83281366
          ],
          [
            144.97231564,
            -37.83286497
          ],
          [
            144.97238352,
            -37.83292571
          ],
          [
            144.97249051,
            -37.83300181
          ],
          [
            144.97305745,
            -37.8333688
          ],
          [
            144.97342568,
            -37.83360223
          ],
          [
            144.97369295,
            -37.83377598
          ],
          [
            144.97378694,
            -37.83384132
          ],
          [
            144.97389227,
            -37.83392441
          ],
          [
            144.97422829,
            -37.83420983
          ],
          [
            144.97431195,
            -37.83428787
          ],
          [
            144.97441708,
            -37.8343907
          ],
          [
            144.97450492,
            -37.83449008
          ],
          [
            144.97457922,
            -37.83458184
          ],
          [
            144.97466124,
            -37.83469049
          ],
          [
            144.97485376,
            -37.83498407
          ],
          [
            144.97488626,
            -37.83502581
          ],
          [
            144.97491517,
            -37.83505713
          ],
          [
            144.97501723,
            -37.83514783
          ],
          [
            144.97506216,
            -37.83519582
          ],
          [
            144.97508942,
            -37.8352336
          ],
          [
            144.97511839,
            -37.83527943
          ],
          [
            144.97537126,
            -37.8357514
          ],
          [
            144.97556078,
            -37.83609287
          ],
          [
            144.97560136,
            -37.83615863
          ],
          [
            144.97564195,
            -37.83621169
          ],
          [
            144.97571781,
            -37.83628824
          ],
          [
            144.97578674,
            -37.83634367
          ],
          [
            144.97584478,
            -37.83638207
          ],
          [
            144.97671903,
            -37.83689419
          ],
          [
            144.97690443,
            -37.83697893
          ],
          [
            144.97716554,
            -37.83707074
          ],
          [
            144.97729895,
            -37.83710773
          ],
          [
            144.97744758,
            -37.83714092
          ],
          [
            144.97774224,
            -37.83719438
          ],
          [
            144.97800687,
            -37.83723677
          ],
          [
            144.97903587,
            -37.83737547
          ],
          [
            144.98107559,
            -37.8376317
          ],
          [
            144.98178362,
            -37.83771972
          ],
          [
            144.98453129,
            -37.83808014
          ],
          [
            144.98472071,
            -37.83810546
          ],
          [
            144.984965,
            -37.838131
          ],
          [
            144.98520819,
            -37.8381512
          ],
          [
            144.98545058,
            -37.83816769
          ],
          [
            144.9856817,
            -37.83819274
          ],
          [
            144.98626497,
            -37.83826418
          ],
          [
            144.98641235,
            -37.83828084
          ],
          [
            144.98728748,
            -37.83839611
          ],
          [
            144.98981462,
            -37.83873217
          ],
          [
            144.99018168,
            -37.83877737
          ],
          [
            144.99132015,
            -37.83893306
          ],
          [
            144.99193613,
            -37.8390135
          ],
          [
            144.99241967,
            -37.83907528
          ],
          [
            144.99250115,
            -37.83908369
          ],
          [
            144.99467969,
            -37.83936198
          ],
          [
            144.99541957,
            -37.83945379
          ],
          [
            144.99696955,
            -37.83962986
          ],
          [
            144.99782001,
            -37.83972976
          ],
          [
            144.99847159,
            -37.83981411
          ],
          [
            144.99942463,
            -37.83992799
          ],
          [
            145.00189394,
            -37.8402301
          ],
          [
            145.00336238,
            -37.84040542
          ],
          [
            145.00458031,
            -37.840558
          ],
          [
            145.00832869,
            -37.84100196
          ],
          [
            145.01058368,
            -37.84126899
          ],
          [
            145.01372856,
            -37.84164273
          ],
          [
            145.01749873,
            -37.84207946
          ],
          [
            145.01994867,
            -37.84236374
          ],
          [
            145.02118803,
            -37.84251624
          ],
          [
            145.02281411,
            -37.84271984
          ],
          [
            145.02533446,
            -37.84303313
          ],
          [
            145.02668848,
            -37.84320804
          ],
          [
            145.02810929,
            -37.84338838
          ],
          [
            145.02861817,
            -37.84344827
          ],
          [
            145.02999496,
            -37.84360073
          ]
        ]
      }
    },
    {
      "type": "Feature",
      "id": "local_segment-1",
      "properties": {
        "shapeId": "3-58-vpt-5.3.R",
        "routeId": "aus:vic:vic-03-58:",
        "routeShortName": "58",
        "directionId": "1",
        "source": "Transport Victoria GTFS Schedule",
        "datasetVersion": "2026-09-18",
        "kind": "local_segment"
      },
      "geometry": {
        "type": "LineString",
        "coordinates": [
          [
            144.96140225,
            -37.82002988
          ],
          [
            144.96142184,
            -37.82128718
          ],
          [
            144.96141886,
            -37.82135012
          ],
          [
            144.96141032,
            -37.82141269
          ],
          [
            144.96140205,
            -37.82145716
          ],
          [
            144.961382,
            -37.82153773
          ],
          [
            144.96120625,
            -37.82207035
          ],
          [
            144.96102645,
            -37.82258901
          ],
          [
            144.96088569,
            -37.82303491
          ],
          [
            144.96086561,
            -37.82307917
          ],
          [
            144.96083962,
            -37.82318569
          ],
          [
            144.96079749,
            -37.82332924
          ],
          [
            144.96056375,
            -37.824082
          ],
          [
            144.96014943,
            -37.82536052
          ],
          [
            144.96013809,
            -37.82540124
          ],
          [
            144.96012454,
            -37.82548896
          ],
          [
            144.96012486,
            -37.82556394
          ],
          [
            144.96013131,
            -37.82560596
          ],
          [
            144.96014316,
            -37.82564591
          ],
          [
            144.96016722,
            -37.82569237
          ],
          [
            144.96019055,
            -37.82572387
          ],
          [
            144.96027785,
            -37.8258173
          ],
          [
            144.96077164,
            -37.82631528
          ],
          [
            144.96419654,
            -37.82978243
          ],
          [
            144.96503135,
            -37.83062414
          ]
        ]
      }
    },
    {
      "type": "Feature",
      "id": "stop-18233",
      "properties": {
        "kind": "stop",
        "stopId": "18233",
        "name": "City Rd/Kings Way #116",
        "directionId": "0"
      },
      "geometry": {
        "type": "Point",
        "coordinates": [
          144.96058968,
          -37.82620633
        ]
      }
    },
    {
      "type": "Feature",
      "id": "stop-22612",
      "properties": {
        "kind": "stop",
        "stopId": "22612",
        "name": "City Rd/Kings Way #116",
        "directionId": "1"
      },
      "geometry": {
        "type": "Point",
        "coordinates": [
          144.96080296,
          -37.82630014
        ]
      }
    }
  ]
}
